STARLINK-36568          
1 68017U 26040C   26073.91668981 -.01539977  67796-3 -44246-2 0  9993
2 68017  97.2713  22.5427 0001331  77.4911 249.1550 15.93207313  3263
STARLINK-36930          
1 68018U 26040D   26073.91668981 -.01453375  60818-3 -42035-2 0  9993
2 68018  97.2710  22.5391 0001111  87.7137 230.7374 15.93068226  3269
STARLINK-36921          
1 68019U 26040E   26073.91668981 -.01591878  72195-3 -45427-2 0  9994
2 68019  97.2721  22.5465 0001152  96.6449 237.4657 15.93345641  3261
STARLINK-36928          
1 68020U 26040F   26073.91668981 -.01570315  70355-3 -44923-2 0  9995
2 68020  97.2713  22.5436 0001178  87.3978 242.6248 15.93295043  3268
STARLINK-36858          
1 68021U 26040G   26074.08277630 -.00198969  18307-4 -26017-3 0  9997
2 68021  97.2747  22.7903 0000341  89.7437 270.3884 16.06880902  2200
STARLINK-36916          
1 68022U 26040H   26073.91668981 -.01603902  73277-3 -45560-2 0  9990
2 68022  97.2716  22.5493 0001152  97.4500 244.7884 15.93435633  3261
STARLINK-36871          
1 68023U 26040J   26073.91668981 -.01612898  74078-3 -45708-2 0  9999
2 68023  97.2715  22.5503 0001119  84.1915 262.1464 15.93482015  3263
STARLINK-36891          
1 68024U 26040K   26073.91668981 -.01625378  75161-3 -46017-2 0  9995
2 68024  97.2715  22.5526 0001142  84.1390 267.0019 15.93502012  3262
STARLINK-36378          
1 68025U 26040L   26073.91668981 -.01627548  75397-3 -45924-2 0  9994
2 68025  97.2735  22.5577 0001106  88.9384 270.9113 15.93566941  3210
STARLINK-36884          
1 68026U 26040M   26073.91668981 -.01619067  74636-3 -45784-2 0  9991
2 68026  97.2726  22.5547 0001099  88.3335 267.2635 15.93524138  3264
STARLINK-36940          
1 68027U 26040N   26073.91668981 -.02019632  11270-2 -57597-2 0  9994
2 68027  97.2794  22.5877 0001294  81.7277 348.1448 15.93411505  3360
STARLINK-36944          
1 68029U 26040Q   26073.91668981 -.01637117  76265-3 -46068-2 0  9996
2 68029  97.2725  22.5576 0001076  84.0056 279.7981 15.93620321  3269
STARLINK-36942          
1 68030U 26040R   26073.91668981 -.01638426  76406-3 -46017-2 0  9993
2 68030  97.2741  22.5607 0001177  89.0205 279.1186 15.93656787  3263
STARLINK-36913          
1 68031U 26040S   26073.91668981 -.01642018  76748-3 -46027-2 0  9996
2 68031  97.2745  22.5625 0001105  97.1498 275.3061 15.93695341  3262
STARLINK-36935          
1 68032U 26040T   26073.91668981 -.01673695  79798-3 -46111-2 0  9994
2 68032  97.2770  22.5750 0001133  94.1288 308.2146 15.94029026  3368
STARLINK-36947          
1 68033U 26040U   26073.91668981 -.01652715  77733-3 -46170-2 0  9997
2 68033  97.2747  22.5641 0001066  87.7525 288.4580 15.93761580  3266
